NORAD_CAT_ID,OBJECT_NAME,OBJECT_TYPE,EPOCH,MEAN_MOTION,ECCENTRICITY,INCLINATION,RA_OF_ASC_NODE,ARG_OF_PERICENTER,MEAN_ANOMALY,BSTAR,MEAN_MOTION_DOT,MEAN_MOTION_DDOT,TLE_LINE0,TLE_LINE1,TLE_LINE2,SEMIMAJOR_AXIS,PERIOD,APOGEE,PERIGEE,DECAYED
51973.0,STARLINK-3679,PAYLOAD,2023-09-20 18:28:12,15.06386893,0.0001545,53.0574,115.2133,100.8065,259.3098,-0.00012979,-2.213e-05,0.0,0 STARLINK-3679,1 51973U 22025T   23263.76959291 -.00002213  00000-0 -12979-3 0  9991,2 51973  53.0574 115.2133 0001545 100.8065 259.3098 15.06386893 86225,6925.389,95.593,548.324,546.184,0.0
51973.0,STARLINK-3679,PAYLOAD,2023-09-20 21:39:17,15.06387582,0.0001446,53.0555,114.6154,95.3491,264.7663,-0.00013495,-2.29e-05,0.0,0 STARLINK-3679,1 51973U 22025T   23263.90228658 -.00002290  00000-0 -13495-3 0  9992,2 51973  53.0555 114.6154 0001446  95.3491 264.7663 15.06387582 85156,6925.387,95.593,548.253,546.25,0.0
51973.0,STARLINK-3679,PAYLOAD,2023-09-21 00:50:22,15.06387764,0.0001419,53.0552,114.0192,94.8833,265.2318,-0.00013018,-2.219e-05,0.0,0 STARLINK-3679,1 51973U 22025T   23264.03498072 -.00002219  00000-0 -13018-3 0  9998,2 51973  53.0552 114.0192 0001419  94.8833 265.2318 15.06387764 85170,6925.386,95.593,548.234,546.268,0.0
51973.0,STARLINK-3679,PAYLOAD,2023-09-21 21:32:23,15.06390764,0.0001472,53.0549,110.1473,90.5811,269.5347,-4.891e-05,-1.01e-05,0.0,0 STARLINK-3679,1 51973U 22025T   23264.89749260 -.00001010  00000-0 -48910-4 0  9998,2 51973  53.0549 110.1473 0001472  90.5811 269.5347 15.06390764 85301,6925.377,95.593,548.261,546.222,0.0
51973.0,STARLINK-3679,PAYLOAD,2023-09-22 13:27:46,15.06389385,0.0001495,53.0547,107.1684,79.5174,280.5983,0.00019053,2.557e-05,0.0,0 STARLINK-3679,1 51973U 22025T   23265.56096010  .00002557  00000-0  19053-3 0  9991,2 51973  53.0547 107.1684 0001495  79.5174 280.5983 15.06389385 85400,6925.381,95.593,548.281,546.211,0.0
51973.0,STARLINK-3679,PAYLOAD,2023-09-22 18:14:23,15.06396224,0.0001531,53.0547,106.2759,78.1304,281.9856,0.00024686,3.397e-05,0.0,0 STARLINK-3679,1 51973U 22025T   23265.75999596  .00003397  00000-0  24686-3 0  9994,2 51973  53.0547 106.2759 0001531  78.1304 281.9856 15.06396224 86522,6925.36,95.592,548.285,546.165,0.0
51973.0,STARLINK-3679,PAYLOAD,2023-09-22 19:49:55,15.06399055,0.0001521,53.0547,105.9779,80.3811,279.7349,0.00027488,3.815e-05,0.0,0 STARLINK-3679,1 51973U 22025T   23265.82634101  .00003815  00000-0  27488-3 0  9998,2 51973  53.0547 105.9779 0001521  80.3811 279.7349 15.06399055 85444,6925.351,95.592,548.27,546.163,0.0
51973.0,STARLINK-3679,PAYLOAD,2023-09-22 23:01:00,15.06403682,0.0001531,53.0545,105.3818,80.5696,279.5466,0.00031716,4.446e-05,0.0,0 STARLINK-3679,1 51973U 22025T   23265.95903179  .00004446  00000-0  31716-3 0  9996,2 51973  53.0545 105.3818 0001531  80.5696 279.5466 15.06403682 86557,6925.337,95.592,548.263,546.142,0.0
51973.0,STARLINK-3679,PAYLOAD,2023-09-23 19:43:01,15.06405345,0.0001534,53.0547,101.5101,84.9728,275.1436,0.00018821,2.523e-05,0.0,0 STARLINK-3679,1 51973U 22025T   23266.82154217  .00002523  00000-0  18821-3 0  9990,2 51973  53.0547 101.5101 0001534  84.9728 275.1436 15.06405345 86680,6925.332,95.592,548.26,546.135,0.0
51973.0,STARLINK-3679,PAYLOAD,2023-09-23 22:54:05,15.06404035,0.0001635,53.0561,100.9108,93.1327,266.9849,0.00017589,2.34e-05,0.0,0 STARLINK-3679,1 51973U 22025T   23266.95423539  .00002340  00000-0  17589-3 0  9997,2 51973  53.0561 100.9108 0001635  93.1327 266.9849 15.06404035 85618,6925.336,95.592,548.333,546.069,0.0
51973.0,STARLINK-3679,PAYLOAD,2023-09-24 19:36:06,15.0640779,0.0001478,53.0551,97.0395,88.527,271.5888,-3.9001e-05,-8.62e-06,0.0,0 STARLINK-3679,1 51973U 22025T   23267.81674370 -.00000862  00000-0 -39001-4 0  9997,2 51973  53.0551  97.0395 0001478  88.5270 271.5888 15.06407790 86832,6925.325,95.592,548.213,546.166,0.0
51973.0,STARLINK-3679,PAYLOAD,2023-09-25 05:09:20,15.06405938,0.0001363,53.0542,95.2519,78.7675,281.3467,-4.9529e-05,-1.019e-05,0.0,0 STARLINK-3679,1 51973U 22025T   23268.21482337 -.00001019  00000-0 -49529-4 0  9993,2 51973  53.0542  95.2519 0001363  78.7675 281.3467 15.06405938 85803,6925.33,95.592,548.139,546.251,0.0
51973.0,STARLINK-3679,PAYLOAD,2023-09-25 19:29:12,15.0640254,0.0001419,53.0549,92.5762,89.9788,270.1364,-3.5996e-05,-8.18e-06,0.0,0 STARLINK-3679,1 51973U 22025T   23268.81194671 -.00000818  00000-0 -35996-4 0  9999,2 51973  53.0549  92.5762 0001419  89.9788 270.1364 15.06402540 86989,6925.341,95.592,548.188,546.223,0.0
51973.0,STARLINK-3679,PAYLOAD,2023-09-26 13:00:09,15.06390616,0.0001232,53.0544,89.2947,75.5728,284.5398,-6.7285e-05,-1.283e-05,0.0,0 STARLINK-3679,1 51973U 22025T   23269.54177297 -.00001283  00000-0 -67285-4 0  9998,2 51973  53.0544  89.2947 0001232  75.5728 284.5398 15.06390616 86009,6925.377,95.593,548.096,546.389,0.0
51973.0,STARLINK-3679,PAYLOAD,2023-09-26 19:22:18,15.06396556,0.0001343,53.0552,88.1062,93.7166,266.3977,-3.1541e-06,-3.28e-06,0.0,0 STARLINK-3679,1 51973U 22025T   23269.80715592 -.00000328  00000-0 -31541-5 0  9999,2 51973  53.0552  88.1062 0001343  93.7166 266.3977 15.06396556 87130,6925.359,95.592,548.154,546.294,0.0
51973.0,STARLINK-3679,PAYLOAD,2023-09-26 20:57:50,15.06397589,0.0001388,53.055,87.8063,94.9985,265.1163,4.8031e-06,-2.1e-06,0.0,0 STARLINK-3679,1 51973U 22025T   23269.87350171 -.00000210  00000-0  48031-5 0  9995,2 51973  53.0550  87.8063 0001388  94.9985 265.1163 15.06397589 86057,6925.356,95.592,548.182,546.26,0.0
51973.0,STARLINK-3679,PAYLOAD,2023-09-27 11:17:41,15.06396689,0.0001406,53.0549,85.1285,92.3614,267.7536,0.00015275,1.994e-05,0.0,0 STARLINK-3679,1 51973U 22025T   23270.47062233  .00001994  00000-0  15275-3 0  9993,2 51973  53.0549  85.1285 0001406  92.3614 267.7536 15.06396689 86146,6925.359,95.592,548.197,546.25,0.0
51973.0,STARLINK-3679,PAYLOAD,2023-09-27 19:15:23,15.0640469,0.0001439,53.0543,83.6389,92.4207,267.6947,0.00019601,2.64e-05,0.0,0 STARLINK-3679,1 51973U 22025T   23270.80235412  .00002640  00000-0  19601-3 0  9997,2 51973  53.0543  83.6389 0001439  92.4207 267.6947 15.06404690 87286,6925.334,95.592,548.196,546.203,0.0
51973.0,STARLINK-3679,PAYLOAD,2023-09-28 11:10:47,15.06396231,0.0001291,53.0541,80.6612,96.9979,263.1157,0.0002336,3.199e-05,0.0,0 STARLINK-3679,1 51973U 22025T   23271.46582733  .00003199  00000-0  23360-3 0  9998,2 51973  53.0541  80.6612 0001291  96.9979 263.1157 15.06396231 87387,6925.36,95.592,548.119,546.331,0.0
51973.0,STARLINK-3679,PAYLOAD,2023-09-28 17:32:56,15.06399959,0.0001433,53.0541,79.4694,95.0346,265.0806,0.00012562,1.59e-05,0.0,0 STARLINK-3679,1 51973U 22025T   23271.73121314  .00001590  00000-0  12562-3 0  9997,2 51973  53.0541  79.4694 0001433  95.0346 265.0806 15.06399959 86335,6925.349,95.592,548.206,546.221,0.0
51973.0,STARLINK-3679,PAYLOAD,2023-09-29 14:14:57,15.06404725,0.0001485,53.0548,75.5975,94.0805,266.0353,0.00010251,1.246e-05,0.0,0 STARLINK-3679,1 51973U 22025T   23272.59371812  .00001246  00000-0  10251-3 0  9993,2 51973  53.0548  75.5975 0001485  94.0805 266.0353 15.06404725 86467,6925.334,95.592,548.227,546.171,0.0
51973.0,STARLINK-3679,PAYLOAD,2023-09-29 17:26:01,15.06405421,0.0001485,53.0559,75.0026,87.4956,272.6203,8.6998e-05,1.015e-05,0.0,0 STARLINK-3679,1 51973U 22025T   23272.72641144  .00001015  00000-0  86998-4 0  9992,2 51973  53.0559  75.0026 0001485  87.4956 272.6203 15.06405421 87578,6925.332,95.592,548.225,546.169,0.0
51973.0,STARLINK-3679,PAYLOAD,2023-09-29 22:12:38,15.06411655,0.000142,53.0556,74.108,93.1193,266.9959,0.00012613,1.598e-05,0.0,0 STARLINK-3679,1 51973U 22025T   23272.92544517  .00001598  00000-0  12613-3 0  9998,2 51973  53.0556  74.1080 0001420  93.1193 266.9959 15.06411655 87605,6925.313,95.591,548.161,546.194,0.0
51973.0,STARLINK-3679,PAYLOAD,2023-09-30 10:56:58,15.06394598,0.0001565,53.0562,71.7251,90.8197,269.2971,2.498e-05,9.1e-07,0.0,0 STARLINK-3679,1 51973U 22025T   23273.45623407  .00000091  00000-0  24980-4 0  9991,2 51973  53.0562  71.7251 0001565  90.8197 269.2971 15.06394598 87687,6925.365,95.592,548.314,546.146,0.0
51973.0,STARLINK-3679,PAYLOAD,2023-10-01 10:50:03,15.06404146,0.0001405,53.0554,67.2585,82.6806,277.4343,0.00013627,1.749e-05,0.0,0 STARLINK-3679,1 51973U 22025T   23274.45142866  .00001749  00000-0  13627-3 0  9993,2 51973  53.0554  67.2585 0001405  82.6806 277.4343 15.06404146 87839,6925.336,95.592,548.174,546.228,0.0
51973.0,STARLINK-3679,PAYLOAD,2023-10-01 20:23:17,15.06419181,0.0001401,53.0544,65.4696,79.2732,280.8415,0.00045442,6.497e-05,0.0,0 STARLINK-3679,1 51973U 22025T   23274.84950299  .00006497  00000-0  45442-3 0  9998,2 51973  53.0544  65.4696 0001401  79.2732 280.8415 15.06419181 86806,6925.29,95.591,548.125,546.185,0.0
51973.0,STARLINK-3679,PAYLOAD,2023-10-02 02:45:27,15.06392133,0.0001644,53.0557,64.2779,85.9905,274.1271,-7.1949e-05,-1.353e-05,0.0,0 STARLINK-3679,1 51973U 22025T   23275.11489967 -.00001353  00000-0 -71949-4 0  9998,2 51973  53.0557  64.2779 0001644  85.9905 274.1271 15.06392133 87932,6925.373,95.593,548.376,546.099,0.0
51973.0,STARLINK-3679,PAYLOAD,2023-10-02 15:29:46,15.06391119,0.0001539,53.0553,61.8968,91.1831,268.9334,-0.00012859,-2.196e-05,0.0,0 STARLINK-3679,1 51973U 22025T   23275.64567609 -.00002196  00000-0 -12859-3 0  9996,2 51973  53.0553  61.8968 0001539  91.1831 268.9334 15.06391119 86923,6925.376,95.593,548.307,546.175,0.0
51973.0,STARLINK-3679,PAYLOAD,2023-10-03 10:36:15,15.06393525,0.0001642,53.0569,58.3236,90.6786,269.4391,0.00023037,3.151e-05,0.0,0 STARLINK-3679,1 51973U 22025T   23276.44184229  .00003151  00000-0  23037-3 0  9998,2 51973  53.0569  58.3236 0001642  90.6786 269.4391 15.06393525 88134,6925.368,95.593,548.371,546.096,0.0
51973.0,STARLINK-3679,PAYLOAD,2023-10-03 13:47:19,15.06394855,0.0001652,53.0569,57.728,91.0529,269.0649,0.00032219,4.52e-05,0.0,0 STARLINK-3679,1 51973U 22025T   23276.57453649  .00004520  00000-0  32219-3 0  9990,2 51973  53.0569  57.7280 0001652  91.0529 269.0649 15.06394855 87067,6925.364,95.592,548.373,546.085,0.0
